{
    "links": {
        "self": "http://www.neowsapp.com/rest/v1/neo/3770277?api_key=iIulBulltgU6a56xZRHN4H3l9WmuAYTsLGpBGhQ2"
    },
    "id": "3770277",
    "neo_reference_id": "3770277",
    "name": "(2017 DY108)",
    "designation": "2017 DY108",
    "nasa_jpl_url": "http://ssd.jpl.nasa.gov/sbdb.cgi?sstr=3770277",
    "absolute_magnitude_h": 22.2,
    "estimated_diameter": {
        "kilometers": {
            "estimated_diameter_min": 0.096506147,
            "estimated_diameter_max": 0.2157943048
        },
        "meters": {
            "estimated_diameter_min": 96.5061469579,
            "estimated_diameter_max": 215.7943048444
        },
        "miles": {
            "estimated_diameter_min": 0.059966121,
            "estimated_diameter_max": 0.134088323
        },
        "feet": {
            "estimated_diameter_min": 316.6212271853,
            "estimated_diameter_max": 707.9865871058
        }
    },
    "is_potentially_hazardous_asteroid": false,
    "close_approach_data": [
        {
            "close_approach_date": "2007-03-20",
            "close_approach_date_full": "2007-Mar-20 20:13",
            "epoch_date_close_approach": 1174421580000,
            "relative_velocity": {
                "kilometers_per_second": "11.068968364",
                "kilometers_per_hour": "39848.2861103125",
                "miles_per_hour": "24760.1753333772"
            },
            "miss_distance": {
                "astronomical": "0.4494678207",
                "lunar": "174.8429822523",
                "kilometers": "67239428.610261909",
                "miles": "41780643.5442319842"
            },
            "orbiting_body": "Earth"
        },
        {
            "close_approach_date": "2012-03-06",
            "close_approach_date_full": "2012-Mar-06 16:12",
            "epoch_date_close_approach": 1331050320000,
            "relative_velocity": {
                "kilometers_per_second": "11.2051790733",
                "kilometers_per_hour": "40338.644663813",
                "miles_per_hour": "25064.8650690232"
            },
            "miss_distance": {
                "astronomical": "0.3423545202",
                "lunar": "133.1759083578",
                "kilometers": "51215507.006791974",
                "miles": "31823840.3629342812"
            },
            "orbiting_body": "Earth"
        },
        {
            "close_approach_date": "2017-02-25",
            "close_approach_date_full": "2017-Feb-25 05:42",
            "epoch_date_close_approach": 1488001320000,
            "relative_velocity": {
                "kilometers_per_second": "11.0035983047",
                "kilometers_per_hour": "39612.9538970388",
                "miles_per_hour": "24613.9490478572"
            },
            "miss_distance": {
                "astronomical": "0.2898393503",
                "lunar": "112.7475072667",
                "kilometers": "43359349.447063861",
                "miles": "26942250.4176528418"
            },
            "orbiting_body": "Earth"
        },
        {
            "close_approach_date": "2022-02-15",
            "close_approach_date_full": "2022-Feb-15 21:05",
            "epoch_date_close_approach": 1644959100000,
            "relative_velocity": {
                "kilometers_per_second": "10.9400861403",
                "kilometers_per_hour": "39384.3101051545",
                "miles_per_hour": "24471.8786872834"
            },
            "miss_distance": {
                "astronomical": "0.3185300007",
                "lunar": "123.9081702723",
                "kilometers": "47651409.635818509",
                "miles": "29609212.9502490642"
            },
            "orbiting_body": "Earth"
        }
    ],
    "orbital_data": {
        "orbit_id": "7",
        "orbit_determination_date": "2017-04-06 08:19:52",
        "first_observation_date": "2017-02-24",
        "last_observation_date": "2017-03-28",
        "data_arc_in_days": 32,
        "observations_used": 42,
        "orbit_uncertainty": "7",
        "minimum_orbit_intersection": ".288925",
        "jupiter_tisserand_invariant": "4.650",
        "epoch_osculation": "2459000.5",
        "eccentricity": ".1159438094982377",
        "semi_major_axis": "1.412130122394393",
        "inclination": "21.21116593040515",
        "ascending_node_longitude": "326.768529253072",
        "orbital_period": "612.9294694258191",
        "perihelion_distance": "1.248402376496775",
        "perihelion_argument": "223.4889420606159",
        "aphelion_distance": "1.575857868292012",
        "perihelion_time": "2459079.385221143353",
        "mean_anomaly": "313.6672961112307",
        "mean_motion": ".5873432718730939",
        "equinox": "J2000",
        "orbit_class": {
            "orbit_class_type": "AMO",
            "orbit_class_description": "Near-Earth asteroid orbits similar to that of 1221 Amor",
            "orbit_class_range": "1.017 AU < q (perihelion) < 1.3 AU"
        }
    },
    "is_sentry_object": false
}